QIANFAN-1               
1 60379U 24140A   25251.22338699  .00000111  00000+0  15277-3 0  9990
2 60379  88.9803 309.1746 0019510 127.8137 232.4784 13.50963233 54451
QIANFAN-2               
1 60380U 24140B   25251.25201475  .00000095  00000+0  12769-3 0  9990
2 60380  88.9789 309.0242 0015052 103.0387 257.2445 13.50963605 54515
QIANFAN-3               
1 60381U 24140C   25251.18623058  .00000108  00000+0  14831-3 0  9995
2 60381  88.9782 309.1707 0016127 114.0854 246.1986 13.50963693 54414
QIANFAN-4               
1 60382U 24140D   25251.23571910  .00000110  00000+0  15126-3 0  9992
2 60382  88.9807 309.0393 0015283 105.3287 254.9555 13.50963317 54544
QIANFAN-5               
1 60383U 24140E   25251.21099246  .00000109  00000+0  14975-3 0  9997
2 60383  88.9782 309.1938 0017256 123.9940 236.2853 13.50966636 54403
QIANFAN-6               
1 60384U 24140F   25251.23156043  .00000111  00000+0  15252-3 0  9991
2 60384  88.9808 308.9125 0015369 110.3772 249.9031 13.50962811 54606
QIANFAN-7               
1 60385U 24140G   25251.20778194  .00000614  00000+0  24375-3 0  9990
2 60385  88.9807 304.9554 0014610   5.2325 354.9019 14.27542238 56766
QIANFAN-8               
1 60386U 24140H   25251.23978748  .00000105  00000+0  14300-3 0  9993
2 60386  88.9810 309.1475 0018802 112.5733 247.7410 13.50966728 54459
